{
    "links": {
        "self": "http://www.neowsapp.com/rest/v1/neo/54092905?api_key=iIulBulltgU6a56xZRHN4H3l9WmuAYTsLGpBGhQ2"
    },
    "id": "54092905",
    "neo_reference_id": "54092905",
    "name": "(2020 WV2)",
    "designation": "2020 WV2",
    "nasa_jpl_url": "http://ssd.jpl.nasa.gov/sbdb.cgi?sstr=54092905",
    "absolute_magnitude_h": 22.969,
    "estimated_diameter": {
        "kilometers": {
            "estimated_diameter_min": 0.0677259299,
            "estimated_diameter_max": 0.151439783
        },
        "meters": {
            "estimated_diameter_min": 67.7259298766,
            "estimated_diameter_max": 151.4397830435
        },
        "miles": {
            "estimated_diameter_min": 0.0420829288,
            "estimated_diameter_max": 0.0941002894
        },
        "feet": {
            "estimated_diameter_min": 222.1979397763,
            "estimated_diameter_max": 496.8496978003
        }
    },
    "is_potentially_hazardous_asteroid": false,
    "close_approach_data": [
        {
            "close_approach_date": "2020-11-17",
            "close_approach_date_full": "2020-Nov-17 15:23",
            "epoch_date_close_approach": 1605626580000,
            "relative_velocity": {
                "kilometers_per_second": "11.4346797559",
                "kilometers_per_hour": "41164.8471211331",
                "miles_per_hour": "25578.2351459063"
            },
            "miss_distance": {
                "astronomical": "0.1889150653",
                "lunar": "73.4879604017",
                "kilometers": "28261291.379790911",
                "miles": "17560752.1605041318"
            },
            "orbiting_body": "Earth"
        }
    ],
    "orbital_data": {
        "orbit_id": "2",
        "orbit_determination_date": "2020-12-05 10:16:14",
        "first_observation_date": "2020-11-20",
        "last_observation_date": "2020-12-05",
        "data_arc_in_days": 15,
        "observations_used": 22,
        "orbit_uncertainty": "9",
        "minimum_orbit_intersection": ".140997",
        "jupiter_tisserand_invariant": "3.403",
        "epoch_osculation": "2459176.5",
        "eccentricity": ".5319424479240551",
        "semi_major_axis": "2.254553317585807",
        "inclination": "10.78301534384435",
        "ascending_node_longitude": "34.63281040772412",
        "orbital_period": "1236.485968385414",
        "perihelion_distance": "1.055260706853913",
        "perihelion_argument": "54.40807827001482",
        "aphelion_distance": "3.4538459283177",
        "perihelion_time": "2459194.966029172446",
        "mean_anomaly": "354.6236587619663",
        "mean_motion": ".2911476629775936",
        "equinox": "J2000",
        "orbit_class": {
            "orbit_class_type": "AMO",
            "orbit_class_description": "Near-Earth asteroid orbits similar to that of 1221 Amor",
            "orbit_class_range": "1.017 AU < q (perihelion) < 1.3 AU"
        }
    },
    "is_sentry_object": false
}